[{"OBJECT_NAME":"ARCTICSAT 1 (RS74S)","OBJECT_ID":"2024-199AD","EPOCH":"2026-03-09T22:49:47.491968","MEAN_MOTION":15.65786404,"ECCENTRICITY":0.00034861,"INCLINATION":97.3086,"RA_OF_ASC_NODE":307.2864,"ARG_OF_PERICENTER":247.2949,"MEAN_ANOMALY":112.7943,"EPHEMERIS_TYPE":0,"CLASSIFICATION_TYPE":"U","NORAD_CAT_ID":61762,"ELEMENT_SET_NO":999,"REV_AT_EPOCH":12243,"BSTAR":0.0011044428,"MEAN_MOTION_DOT":0.00112957,"MEAN_MOTION_DDOT":0},{"OBJECT_NAME":"STARLINK-36533","OBJECT_ID":"2026-020AC","EPOCH":"2026-03-09T16:00:06.953760","MEAN_MOTION":15.67305458,"ECCENTRICITY":0.0003498,"INCLINATION":42.9984,"RA_OF_ASC_NODE":142.2096,"ARG_OF_PERICENTER":341.2459,"MEAN_ANOMALY":18.8278,"EPHEMERIS_TYPE":0,"CLASSIFICATION_TYPE":"U","NORAD_CAT_ID":67643,"ELEMENT_SET_NO":999,"REV_AT_EPOCH":608,"BSTAR":-0.0046634327,"MEAN_MOTION_DOT":-0.00488163,"MEAN_MOTION_DDOT":0}]
